CTC2_L_00171001-01
1 10000U 26700LT  26075.70042824  .00000000  00000+0  00000-0 0  9992
2 10000  75.0000   0.0000 0000000   0.0000   0.0000 14.89338871    18
CTC2_L_00171001-02
1 10001U 22481LL  26075.70042824  .00000000  00000+0  00000-0 0  9995
2 10001  75.0000   0.0000 0000000   0.0000  90.0000 14.89338871    18
CTC2_L_00171001-03
1 10002U 26392YA  26075.70042824  .00000000  00000+0  00000-0 0  9991
2 10002  75.0000   0.0000 0000000   0.0000 180.0000 14.89338871    19
CTC2_L_00171001-04
1 10003U 26132HT  26075.70042824  .00000000  00000+0  00000-0 0  9994
2 10003  75.0000   0.0000 0000000   0.0000 270.0000 14.89338871    10
CTC2_L_00171002-01
1 10004U 23186CO  26075.70042824  .00000000  00000+0  00000-0 0  9991
2 10004  75.0000  12.0000 0000000   0.0000  12.0000 14.89338871    18
CTC2_L_00171002-02
1 10005U 22330LL  26075.70042824  .00000000  00000+0  00000-0 0  9992
2 10005  75.0000  12.0000 0000000   0.0000 102.0000 14.89338871    19
CTC2_L_00171002-03
1 10006U 26400NJ  26075.70042824  .00000000  00000+0  00000-0 0  9995
2 10006  75.0000  12.0000 0000000   0.0000 192.0000 14.89338871    19
CTC2_L_00171002-04
1 10007U 26388NF  26075.70042824  .00000000  00000+0  00000-0 0  9991
2 10007  75.0000  12.0000 0000000   0.0000 282.0000 14.89338871    10
CTC2_L_00171003-01
1 10008U 26623KS  26075.70042824  .00000000  00000+0  00000-0 0  9994
2 10008  75.0000  24.0000 0000000   0.0000  24.0000 14.89338871    18
CTC2_L_00171003-02
1 10009U 22481LM  26075.70042824  .00000000  00000+0  00000-0 0  9993
2 10009  75.0000  24.0000 0000000   0.0000 114.0000 14.89338871    19
CTC2_L_00171003-03
1 10010U 26062SI  26075.70042824  .00000000  00000+0  00000-0 0  9994
2 10010  75.0000  24.0000 0000000   0.0000 204.0000 14.89338871    11
CTC2_L_00171003-04
1 10011U 23508SN  26075.70042824  .00000000  00000+0  00000-0 0  9997
2 10011  75.0000  24.0000 0000000   0.0000 294.0000 14.89338871    11
CTC2_L_00171004-01
1 10012U 22226NB  26075.70042824  .00000000  00000+0  00000-0 0  9994
2 10012  75.0000  36.0000 0000000   0.0000  36.0000 14.89338871    19
CTC2_L_00171004-02
1 10013U 25093GO  26075.70042824  .00000000  00000+0  00000-0 0  9990
2 10013  75.0000  36.0000 0000000   0.0000 126.0000 14.89338871    10
CTC2_L_00171004-03
1 10014U 26317XZ  26075.70042824  .00000000  00000+0  00000-0 0  9991
2 10014  75.0000  36.0000 0000000   0.0000 216.0000 14.89338871    11
CTC2_L_00171004-04
1 10015U 25853NQ  26075.70042824  .00000000  00000+0  00000-0 0  9996
2 10015  75.0000  36.0000 0000000   0.0000 306.0000 14.89338871    12
CTC2_L_00171005-01
1 10016U 23335BP  26075.70042824  .00000000  00000+0  00000-0 0  9990
2 10016  75.0000  48.0000 0000000   0.0000  48.0000 14.89338871    19
CTC2_L_00171005-02
1 10017U 25616PC  26075.70042824  .00000000  00000+0  00000-0 0  9995
2 10017  75.0000  48.0000 0000000   0.0000 138.0000 14.89338871    10
CTC2_L_00171005-03
1 10018U 22350YE  26075.70042824  .00000000  00000+0  00000-0 0  9998
2 10018  75.0000  48.0000 0000000   0.0000 228.0000 14.89338871    11
CTC2_L_00171005-04
1 10019U 25619TF  26075.70042824  .00000000  00000+0  00000-0 0  9990
2 10019  75.0000  48.0000 0000000   0.0000 318.0000 14.89338871    12
CTC2_L_00171006-01
1 10020U 22492EW  26075.70042824  .00000000  00000+0  00000-0 0  9998
2 10020  75.0000  60.0000 0000000   0.0000  60.0000 14.89338871    12
CTC2_L_00171006-02
1 10021U 25835XV  26075.70042824  .00000000  00000+0  00000-0 0  9993
2 10021  75.0000  60.0000 0000000   0.0000 150.0000 14.89338871    13
CTC2_L_00171006-03
1 10022U 23775J   26075.70042824  .00000000  00000+0  00000-0 0  9995
2 10022  75.0000  60.0000 0000000   0.0000 240.0000 14.89338871    14
CTC2_L_00171006-04
1 10023U 22151XA  26075.70042824  .00000000  00000+0  00000-0 0  9993
2 10023  75.0000  60.0000 0000000   0.0000 330.0000 14.89338871    15
CTC2_L_00171007-01
1 10024U 26164ET  26075.70042824  .00000000  00000+0  00000-0 0  9992
2 10024  75.0000  72.0000 0000000   0.0000  72.0000 14.89338871    12
CTC2_L_00171007-02
1 10025U 23606NR  26075.70042824  .00000000  00000+0  00000-0 0  9991
2 10025  75.0000  72.0000 0000000   0.0000 162.0000 14.89338871    13
CTC2_L_00171007-03
1 10026U 25023FB  26075.70042824  .00000000  00000+0  00000-0 0  9997
2 10026  75.0000  72.0000 0000000   0.0000 252.0000 14.89338871    14
CTC2_L_00171007-04
1 10027U 23021CE  26075.70042824  .00000000  00000+0  00000-0 0  9994
2 10027  75.0000  72.0000 0000000   0.0000 342.0000 14.89338871    15
CTC2_L_00171008-01
1 10028U 23878ND  26075.70042824  .00000000  00000+0  00000-0 0  9995
2 10028  75.0000  84.0000 0000000   0.0000  84.0000 14.89338871    12
CTC2_L_00171008-02
1 10029U 24827VG  26075.70042824  .00000000  00000+0  00000-0 0  9991
2 10029  75.0000  84.0000 0000000   0.0000 174.0000 14.89338871    13
CTC2_L_00171008-03
1 10030U 22446FF  26075.70042824  .00000000  00000+0  00000-0 0  9998
2 10030  75.0000  84.0000 0000000   0.0000 264.0000 14.89338871    15
CTC2_L_00171008-04
1 10031U 26613XT  26075.70042824  .00000000  00000+0  00000-0 0  9999
2 10031  75.0000  84.0000 0000000   0.0000 354.0000 14.89338871    16
CTC2_L_00171009-01
1 10032U 23674SU  26075.70042824  .00000000  00000+0  00000-0 0  9994
2 10032  75.0000  96.0000 0000000   0.0000  96.0000 14.89338871    13
CTC2_L_00171009-02
1 10033U 23368KS  26075.70042824  .00000000  00000+0  00000-0 0  9995
2 10033  75.0000  96.0000 0000000   0.0000 186.0000 14.89338871    14
CTC2_L_00171009-03
1 10034U 24324TX  26075.70042824  .00000000  00000+0  00000-0 0  9999
2 10034  75.0000  96.0000 0000000   0.0000 276.0000 14.89338871    15
CTC2_L_00171009-04
1 10035U 23432JJ  26075.70042824  .00000000  00000+0  00000-0 0  9999
2 10035  75.0000  96.0000 0000000   0.0000   6.0000 14.89338871    17
CTC2_L_00171010-01
1 10036U 24237CZ  26075.70042824  .00000000  00000+0  00000-0 0  9994
2 10036  75.0000 108.0000 0000000   0.0000 108.0000 14.89338871    15
CTC2_L_00171010-02
1 10037U 22145DL  26075.70042824  .00000000  00000+0  00000-0 0  9991
2 10037  75.0000 108.0000 0000000   0.0000 198.0000 14.89338871    15
CTC2_L_00171010-03
1 10038U 24150GH  26075.70042824  .00000000  00000+0  00000-0 0  9990
2 10038  75.0000 108.0000 0000000   0.0000 288.0000 14.89338871    16
CTC2_L_00171010-04
1 10039U 25409QI  26075.70042824  .00000000  00000+0  00000-0 0  9999
2 10039  75.0000 108.0000 0000000   0.0000  18.0000 14.89338871    18
CTC2_L_00171011-01
1 10040U 24841UL  26075.70042824  .00000000  00000+0  00000-0 0  9990
2 10040  75.0000 120.0000 0000000   0.0000 120.0000 14.89338871    18
CTC2_L_00171011-02
1 10041U 23789OJ  26075.70042824  .00000000  00000+0  00000-0 0  9991
2 10041  75.0000 120.0000 0000000   0.0000 210.0000 14.89338871    19
CTC2_L_00171011-03
1 10042U 26633TX  26075.70042824  .00000000  00000+0  00000-0 0  9993
2 10042  75.0000 120.0000 0000000   0.0000 300.0000 14.89338871    10
CTC2_L_00171011-04
1 10043U 22466VO  26075.70042824  .00000000  00000+0  00000-0 0  9994
2 10043  75.0000 120.0000 0000000   0.0000  30.0000 14.89338871    11
CTC2_L_00171012-01
1 10044U 22721KQ  26075.70042824  .00000000  00000+0  00000-0 0  9999
2 10044  75.0000 132.0000 0000000   0.0000 132.0000 14.89338871    18
CTC2_L_00171012-02
1 10045U 25933MP  26075.70042824  .00000000  00000+0  00000-0 0  9998
2 10045  75.0000 132.0000 0000000   0.0000 222.0000 14.89338871    19
CTC2_L_00171012-03
1 10046U 22307NR  26075.70042824  .00000000  00000+0  00000-0 0  9991
2 10046  75.0000 132.0000 0000000   0.0000 312.0000 14.89338871    10
CTC2_L_00171012-04
1 10047U 23034TK  26075.70042824  .00000000  00000+0  00000-0 0  9990
2 10047  75.0000 132.0000 0000000   0.0000  42.0000 14.89338871    11
CTC2_L_00171013-01
1 10048U 22946SI  26075.70042824  .00000000  00000+0  00000-0 0  9992
2 10048  75.0000 144.0000 0000000   0.0000 144.0000 14.89338871    18
CTC2_L_00171013-02
1 10049U 23985WS  26075.70042824  .00000000  00000+0  00000-0 0  9997
2 10049  75.0000 144.0000 0000000   0.0000 234.0000 14.89338871    19
CTC2_L_00171013-03
1 10050U 23454ZG  26075.70042824  .00000000  00000+0  00000-0 0  9990
2 10050  75.0000 144.0000 0000000   0.0000 324.0000 14.89338871    11
CTC2_L_00171013-04
1 10051U 24231MS  26075.70042824  .00000000  00000+0  00000-0 0  9995
2 10051  75.0000 144.0000 0000000   0.0000  54.0000 14.89338871    12
CTC2_L_00171014-01
1 10052U 22264TL  26075.70042824  .00000000  00000+0  00000-0 0  9990
2 10052  75.0000 156.0000 0000000   0.0000 156.0000 14.89338871    19
CTC2_L_00171014-02
1 10053U 23502HR  26075.70042824  .00000000  00000+0  00000-0 0  9997
2 10053  75.0000 156.0000 0000000   0.0000 246.0000 14.89338871    10
CTC2_L_00171014-03
1 10054U 23082VR  26075.70042824  .00000000  00000+0  00000-0 0  9991
2 10054  75.0000 156.0000 0000000   0.0000 336.0000 14.89338871    11
CTC2_L_00171014-04
1 10055U 23545AB  26075.70042824  .00000000  00000+0  00000-0 0  9996
2 10055  75.0000 156.0000 0000000   0.0000  66.0000 14.89338871    12
CTC2_L_00171015-01
1 10056U 23194PR  26075.70042824  .00000000  00000+0  00000-0 0  9997
2 10056  75.0000 168.0000 0000000   0.0000 168.0000 14.89338871    19
CTC2_L_00171015-02
1 10057U 23404WB  26075.70042824  .00000000  00000+0  00000-0 0  9992
2 10057  75.0000 168.0000 0000000   0.0000 258.0000 14.89338871    10
CTC2_L_00171015-03
1 10058U 26204TV  26075.70042824  .00000000  00000+0  00000-0 0  9994
2 10058  75.0000 168.0000 0000000   0.0000 348.0000 14.89338871    11
CTC2_L_00171015-04
1 10059U 22249UN  26075.70042824  .00000000  00000+0  00000-0 0  9990
2 10059  75.0000 168.0000 0000000   0.0000  78.0000 14.89338871    12
CTC2_L_00171016-01
1 10060U 22286RH  26075.70042824  .00000000  00000+0  00000-0 0  9993
2 10060  75.0000 180.0000 0000000   0.0000 180.0000 14.89338871    12
CTC2_L_00171016-02
1 10061U 25450HB  26075.70042824  .00000000  00000+0  00000-0 0  9990
2 10061  75.0000 180.0000 0000000   0.0000 270.0000 14.89338871    13
